NORAD_CAT_ID,OBJECT_NAME,OBJECT_TYPE,EPOCH,MEAN_MOTION,ECCENTRICITY,INCLINATION,RA_OF_ASC_NODE,ARG_OF_PERICENTER,MEAN_ANOMALY,BSTAR,MEAN_MOTION_DOT,MEAN_MOTION_DDOT,TLE_LINE0,TLE_LINE1,TLE_LINE2,SEMIMAJOR_AXIS,PERIOD,APOGEE,PERIGEE,DECAYED
52368.0,STARLINK-3834,PAYLOAD,2024-03-17 13:09:02,15.0883996,0.0001519,53.2177,190.9431,108.0167,252.0991,0.00011437,1.533e-05,0.0,0 STARLINK-3834,1 52368U 22045AP  24077.54794481  .00001533  00000-0  11437-3 0  9990,2 52368  53.2177 190.9431 0001519 108.0167 252.0991 15.08839960106898,6917.881,95.438,540.796,538.695,0.0
52368.0,STARLINK-3834,PAYLOAD,2024-03-18 11:24:27,15.08830241,0.0001431,53.2172,186.7784,99.5147,260.6007,1.6189e-05,-3e-07,0.0,0 STARLINK-3834,1 52368U 22045AP  24078.47531693 -.00000030  00000-0  16189-4 0  9999,2 52368  53.2172 186.7784 0001431  99.5147 260.6007 15.08830241107035,6917.91,95.438,540.765,538.785,0.0
52368.0,STARLINK-3834,PAYLOAD,2024-03-19 11:15:15,15.08770454,0.0002395,53.2168,182.3139,103.4198,256.7061,0.0012647,0.00019859,0.0,0 STARLINK-3834,1 52368U 22045AP  24079.46892769  .00019859  00000-0  12647-2 0  9994,2 52368  53.2168 182.3139 0002395 103.4198 256.7061 15.08770454107188,6918.093,95.442,541.615,538.301,0.0
52368.0,STARLINK-3834,PAYLOAD,2024-03-19 12:50:35,15.08858006,0.000155,53.2177,182.024,104.4938,255.6226,0.00022415,3.283e-05,0.0,0 STARLINK-3834,1 52368U 22045AP  24079.53513628  .00003283  00000-0  22415-3 0  9995,2 52368  53.2177 182.0240 0001550 104.4938 255.6226 15.08858006107195,6917.825,95.436,540.763,538.618,0.0
52368.0,STARLINK-3834,PAYLOAD,2024-03-20 06:19:51,15.08835758,0.000162,53.2195,178.7452,131.9211,228.192,2.5226e-05,1.13e-06,0.0,0 STARLINK-3834,1 52368U 22045AP  24080.26379362  .00000113  00000-0  25226-4 0  9995,2 52368  53.2195 178.7452 0001620 131.9211 228.1920 15.08835758107307,6917.893,95.438,540.879,538.638,0.0
52368.0,STARLINK-3834,PAYLOAD,2024-03-20 12:41:24,15.08840972,0.0001158,53.2182,177.5583,81.7651,278.3472,7.7508e-05,9.46e-06,0.0,0 STARLINK-3834,1 52368U 22045AP  24080.52875220  .00000946  00000-0  77508-4 0  9992,2 52368  53.2182 177.5583 0001158  81.7651 278.3472 15.08840972107348,6917.877,95.437,540.544,538.941,0.0
52368.0,STARLINK-3834,PAYLOAD,2024-03-20 23:49:05,15.08848783,0.0001349,53.2165,175.478,93.306,266.8087,-0.00012527,-2.282e-05,0.0,0 STARLINK-3834,1 52368U 22045AP  24080.99242904 -.00002282  00000-0 -12527-3 0  9996,2 52368  53.2165 175.4780 0001349  93.3060 266.8087 15.08848783107410,6917.854,95.437,540.652,538.785,0.0
52368.0,STARLINK-3834,PAYLOAD,2024-03-21 12:32:10,15.08855345,0.0001474,53.2164,173.0989,93.2888,266.8273,6.3687e-05,7.26e-06,0.0,0 STARLINK-3834,1 52368U 22045AP  24081.52234418  .00000726  00000-0  63687-4 0  9990,2 52368  53.2164 173.0989 0001474  93.2888 266.8273 15.08855345107497,6917.833,95.437,540.718,538.679,0.0
52368.0,STARLINK-3834,PAYLOAD,2024-03-22 10:47:34,15.08852208,0.0001558,53.2161,168.9357,101.2006,258.9161,0.00031844,4.785e-05,0.0,0 STARLINK-3834,1 52368U 22045AP  24082.44970337  .00004785  00000-0  31844-3 0  9997,2 52368  53.2161 168.9357 0001558 101.2006 258.9161 15.08852208107630,6917.843,95.437,540.786,538.63,0.0
52368.0,STARLINK-3834,PAYLOAD,2024-03-23 12:13:45,15.08831725,0.0001467,53.2164,164.1783,90.2986,269.8174,-0.00011124,-2.057e-05,0.0,0 STARLINK-3834,1 52368U 22045AP  24083.50955503 -.00002057  00000-0 -11124-3 0  9994,2 52368  53.2164 164.1783 0001467  90.2986 269.8174 15.08831725107790,6917.906,95.438,540.786,538.756,0.0
52368.0,STARLINK-3834,PAYLOAD,2024-03-24 12:04:31,15.08874981,0.0001753,53.2168,159.7218,80.7744,279.3446,0.00078025,0.00012163,0.0,0 STARLINK-3834,1 52368U 22045AP  24084.50313794  .00012163  00000-0  78025-3 0  9995,2 52368  53.2168 159.7218 0001753  80.7744 279.3446 15.08874981107947,6917.773,95.435,540.851,538.426,0.0
52368.0,STARLINK-3834,PAYLOAD,2024-03-24 21:36:50,15.08850128,0.0002012,53.2155,157.9332,79.1969,280.925,0.00034591,5.223e-05,0.0,0 STARLINK-3834,1 52368U 22045AP  24084.90058917  .00005223  00000-0  34591-3 0  9991,2 52368  53.2155 157.9332 0002012  79.1969 280.9250 15.08850128108006,6917.849,95.437,541.106,538.323,0.0
52368.0,STARLINK-3834,PAYLOAD,2024-03-25 11:55:19,15.0884121,0.0001242,53.216,155.2565,88.6933,271.4201,3.6241e-05,2.89e-06,0.0,0 STARLINK-3834,1 52368U 22045AP  24085.49674971  .00000289  00000-0  36241-4 0  9992,2 52368  53.2160 155.2565 0001242  88.6933 271.4201 15.08841210108093,6917.877,95.437,540.601,538.882,0.0
52368.0,STARLINK-3834,PAYLOAD,2024-03-25 21:27:38,15.08828607,0.0001645,53.2139,153.472,79.2053,280.9124,0.000216,3.15e-05,0.0,0 STARLINK-3834,1 52368U 22045AP  24085.89419570  .00003150  00000-0  21600-3 0  9990,2 52368  53.2139 153.4720 0001645  79.2053 280.9124 15.08828607108159,6917.915,95.438,540.918,538.642,0.0
52368.0,STARLINK-3834,PAYLOAD,2024-03-26 03:49:11,15.08819278,0.0002478,53.2155,152.2818,80.3634,279.7637,8.1588e-05,1.01e-05,0.0,0 STARLINK-3834,1 52368U 22045AP  24086.15916476  .00001010  00000-0  81588-4 0  9992,2 52368  53.2155 152.2818 0002478  80.3634 279.7637 15.08819278108198,6917.944,95.439,541.523,538.094,0.0
52368.0,STARLINK-3834,PAYLOAD,2024-03-26 10:10:44,15.08820134,0.0002357,53.2176,151.0958,86.0922,274.0339,0.00013924,1.927e-05,0.0,0 STARLINK-3834,1 52368U 22045AP  24086.42412852  .00001927  00000-0  13924-3 0  9996,2 52368  53.2176 151.0958 0002357  86.0922 274.0339 15.08820134108237,6917.941,95.439,541.437,538.176,0.0
52368.0,STARLINK-3834,PAYLOAD,2024-03-26 21:18:26,15.0883075,0.0001705,53.2154,149.0098,83.9929,276.1258,0.00026256,3.892e-05,0.0,0 STARLINK-3834,1 52368U 22045AP  24086.88780604  .00003892  00000-0  26256-3 0  9994,2 52368  53.2154 149.0098 0001705  83.9929 276.1258 15.08830750108300,6917.909,95.438,540.953,538.594,0.0
52368.0,STARLINK-3834,PAYLOAD,2024-03-27 11:36:54,15.08856932,0.000141,53.215,146.3375,85.579,274.5363,0.00074719,0.00011629,0.0,0 STARLINK-3834,1 52368U 22045AP  24087.48395975  .00011629  00000-0  74719-3 0  9998,2 52368  53.2150 146.3375 0001410  85.5790 274.5363 15.08856932108399,6917.829,95.436,540.669,538.718,0.0
52368.0,STARLINK-3834,PAYLOAD,2024-03-27 21:09:12,15.08851628,0.0001326,53.2149,144.5513,95.2955,264.8189,0.00034351,5.185e-05,0.0,0 STARLINK-3834,1 52368U 22045AP  24087.88139847  .00005185  00000-0  34351-3 0  9994,2 52368  53.2149 144.5513 0001326  95.2955 264.8189 15.08851628108450,6917.845,95.437,540.627,538.793,0.0
52368.0,STARLINK-3834,PAYLOAD,2024-03-28 09:52:17,15.08851017,0.0001543,53.2143,142.1737,92.5267,267.5902,0.00024317,3.585e-05,0.0,0 STARLINK-3834,1 52368U 22045AP  24088.41131860  .00003585  00000-0  24317-3 0  9994,2 52368  53.2143 142.1737 0001543  92.5267 267.5902 15.08851017108537,6917.847,95.437,540.779,538.644,0.0
52368.0,STARLINK-3834,PAYLOAD,2024-03-28 21:00:00,15.08842791,0.0001452,53.2134,140.092,94.6585,265.4573,0.00050735,7.796e-05,0.0,0 STARLINK-3834,1 52368U 22045AP  24088.87500039  .00007796  00000-0  50735-3 0  9993,2 52368  53.2134 140.0920 0001452  94.6585 265.4573 15.08842791108601,6917.872,95.437,540.741,538.732,0.0
52368.0,STARLINK-3834,PAYLOAD,2024-03-29 09:43:05,15.08846356,0.0001443,53.2161,137.7127,90.0907,270.0251,0.00013261,1.824e-05,0.0,0 STARLINK-3834,1 52368U 22045AP  24089.40491916  .00001824  00000-0  13261-3 0  9995,2 52368  53.2161 137.7127 0001443  90.0907 270.0251 15.08846356108685,6917.861,95.437,540.724,538.728,0.0
52368.0,STARLINK-3834,PAYLOAD,2024-03-30 03:12:19,15.08844271,0.0001511,53.2166,134.442,91.0947,269.0218,0.00027693,4.123e-05,0.0,0 STARLINK-3834,1 52368U 22045AP  24090.13356140  .00004123  00000-0  27693-3 0  9995,2 52368  53.2166 134.4420 0001511  91.0947 269.0218 15.08844271108798,6917.867,95.437,540.778,538.687,0.0
52368.0,STARLINK-3834,PAYLOAD,2024-03-30 09:33:52,15.08846771,0.0001527,53.2165,133.2521,92.3345,267.7822,0.00026863,3.991e-05,0.0,0 STARLINK-3834,1 52368U 22045AP  24090.39851956  .00003991  00000-0  26863-3 0  9998,2 52368  53.2165 133.2521 0001527  92.3345 267.7822 15.08846771108837,6917.86,95.437,540.781,538.668,0.0
52368.0,STARLINK-3834,PAYLOAD,2024-03-31 03:03:06,15.08839812,0.0001674,53.216,129.9805,92.65,267.4683,7.2682e-05,8.69e-06,0.0,0 STARLINK-3834,1 52368U 22045AP  24091.12716237  .00000869  00000-0  72682-4 0  9994,2 52368  53.2160 129.9805 0001674  92.6500 267.4683 15.08839812108940,6917.881,95.438,540.904,538.588,0.0
52368.0,STARLINK-3834,PAYLOAD,2024-03-31 09:24:39,15.08843389,0.0001518,53.2172,128.7916,91.4571,268.6595,0.00011101,1.479e-05,0.0,0 STARLINK-3834,1 52368U 22045AP  24091.39212071  .00001479  00000-0  11101-3 0  9996,2 52368  53.2172 128.7916 0001518  91.4571 268.6595 15.08843389108988,6917.87,95.437,540.785,538.685,0.0
52368.0,STARLINK-3834,PAYLOAD,2024-03-31 18:56:58,15.08837286,0.000128,53.2158,127.0079,86.1745,273.9393,3.9907e-05,3.47e-06,0.0,0 STARLINK-3834,1 52368U 22045AP  24091.78956537  .00000347  00000-0  39907-4 0  9999,2 52368  53.2158 127.0079 0001280  86.1745 273.9393 15.08837286109046,6917.889,95.438,540.639,538.868,0.0
52368.0,STARLINK-3834,PAYLOAD,2024-04-01 10:50:49,15.0883759,0.0001453,53.2165,124.0346,92.506,267.6098,4.2161e-05,3.83e-06,0.0,0 STARLINK-3834,1 52368U 22045AP  24092.45196747  .00000383  00000-0  42161-4 0  9999,2 52368  53.2165 124.0346 0001453  92.5060 267.6098 15.08837590109142,6917.888,95.438,540.758,538.748,0.0
52368.0,STARLINK-3834,PAYLOAD,2024-04-02 10:41:36,15.08845581,0.0001442,53.2166,119.5743,93.2897,266.826,0.0001541,2.166e-05,0.0,0 STARLINK-3834,1 52368U 22045AP  24093.44556155  .00002166  00000-0  15410-3 0  9999,2 52368  53.2166 119.5743 0001442  93.2897 266.8260 15.08845581109294,6917.863,95.437,540.726,538.731,0.0
52368.0,STARLINK-3834,PAYLOAD,2024-04-02 18:38:32,15.0884318,0.0001546,53.2172,118.0858,93.2987,266.8182,4.8564e-05,4.85e-06,0.0,0 STARLINK-3834,1 52368U 22045AP  24093.77676464  .00000485  00000-0  48564-4 0  9990,2 52368  53.2172 118.0858 0001546  93.2987 266.8182 15.08843180109349,6917.871,95.437,540.805,538.666,0.0
